<?xml version="1.0" encoding="UTF-8"?>
<ndm xmlns:xsi="http://www.w3.org/2001/XMLSchema-instance" xsi:noNamespaceSchemaLocation="https://sanaregistry.org/r/ndmxml_unqualified/ndmxml-2.0.0-master-2.0.xsd">
<omm id="CCSDS_OMM_VERS" version="2.0">
<header><CREATION_DATE/><ORIGINATOR/></header><body><segment><metadata><OBJECT_NAME>ORBCOMM-X [-]</OBJECT_NAME><OBJECT_ID>1991-050C</OBJECT_ID><CENTER_NAME>EARTH</CENTER_NAME><REF_FRAME>TEME</REF_FRAME><TIME_SYSTEM>UTC</TIME_SYSTEM><MEAN_ELEMENT_THEORY>SGP4</MEAN_ELEMENT_THEORY></metadata><data><meanElements><EPOCH>2024-02-12T04:15:30.866976</EPOCH><MEAN_MOTION>14.42361010</MEAN_MOTION><ECCENTRICITY>.0002989</ECCENTRICITY><INCLINATION>98.4056</INCLINATION><RA_OF_ASC_NODE>112.3678</RA_OF_ASC_NODE><ARG_OF_PERICENTER>214.6437</ARG_OF_PERICENTER><MEAN_ANOMALY>145.4559</MEAN_ANOMALY></meanElements><tleParameters><EPHEMERIS_TYPE>0</EPHEMERIS_TYPE><CLASSIFICATION_TYPE>U</CLASSIFICATION_TYPE><NORAD_CAT_ID>21576</NORAD_CAT_ID><ELEMENT_SET_NO>999</ELEMENT_SET_NO><REV_AT_EPOCH>71131</REV_AT_EPOCH><BSTAR>.20111E-3</BSTAR><MEAN_MOTION_DOT>.621E-5</MEAN_MOTION_DOT><MEAN_MOTION_DDOT>0</MEAN_MOTION_DDOT></tleParameters></data></segment></body></omm>
<omm id="CCSDS_OMM_VERS" version="2.0">
<header><CREATION_DATE/><ORIGINATOR/></header><body><segment><metadata><OBJECT_NAME>ORBCOMM FM01 [-]</OBJECT_NAME><OBJECT_ID>1995-017A</OBJECT_ID><CENTER_NAME>EARTH</CENTER_NAME><REF_FRAME>TEME</REF_FRAME><TIME_SYSTEM>UTC</TIME_SYSTEM><MEAN_ELEMENT_THEORY>SGP4</MEAN_ELEMENT_THEORY></metadata><data><meanElements><EPOCH>2024-02-12T14:07:46.626240</EPOCH><MEAN_MOTION>14.78446847</MEAN_MOTION><ECCENTRICITY>.0006764</ECCENTRICITY><INCLINATION>69.9678</INCLINATION><RA_OF_ASC_NODE>205.8889</RA_OF_ASC_NODE><ARG_OF_PERICENTER>319.5947</ARG_OF_PERICENTER><MEAN_ANOMALY>40.4698</MEAN_ANOMALY></meanElements><tleParameters><EPHEMERIS_TYPE>0</EPHEMERIS_TYPE><CLASSIFICATION_TYPE>U</CLASSIFICATION_TYPE><NORAD_CAT_ID>23545</NORAD_CAT_ID><ELEMENT_SET_NO>999</ELEMENT_SET_NO><REV_AT_EPOCH>53972</REV_AT_EPOCH><BSTAR>.17413E-2</BSTAR><MEAN_MOTION_DOT>.12667E-3</MEAN_MOTION_DOT><MEAN_MOTION_DDOT>0</MEAN_MOTION_DDOT></tleParameters></data></segment></body></omm>
<omm id="CCSDS_OMM_VERS" version="2.0">
<header><CREATION_DATE/><ORIGINATOR/></header><body><segment><metadata><OBJECT_NAME>ORBCOMM FM02 [-]</OBJECT_NAME><OBJECT_ID>1995-017B</OBJECT_ID><CENTER_NAME>EARTH</CENTER_NAME><REF_FRAME>TEME</REF_FRAME><TIME_SYSTEM>UTC</TIME_SYSTEM><MEAN_ELEMENT_THEORY>SGP4</MEAN_ELEMENT_THEORY></metadata><data><meanElements><EPOCH>2024-02-12T14:13:45.613920</EPOCH><MEAN_MOTION>14.78033207</MEAN_MOTION><ECCENTRICITY>.0008741</ECCENTRICITY><INCLINATION>69.9685</INCLINATION><RA_OF_ASC_NODE>225.1411</RA_OF_ASC_NODE><ARG_OF_PERICENTER>318.6182</ARG_OF_PERICENTER><MEAN_ANOMALY>41.4303</MEAN_ANOMALY></meanElements><tleParameters><EPHEMERIS_TYPE>0</EPHEMERIS_TYPE><CLASSIFICATION_TYPE>U</CLASSIFICATION_TYPE><NORAD_CAT_ID>23546</NORAD_CAT_ID><ELEMENT_SET_NO>999</ELEMENT_SET_NO><REV_AT_EPOCH>53937</REV_AT_EPOCH><BSTAR>.13148E-2</BSTAR><MEAN_MOTION_DOT>.945E-4</MEAN_MOTION_DOT><MEAN_MOTION_DDOT>0</MEAN_MOTION_DDOT></tleParameters></data></segment></body></omm>
<omm id="CCSDS_OMM_VERS" version="2.0">
<header><CREATION_DATE/><ORIGINATOR/></header><body><segment><metadata><OBJECT_NAME>ORBCOMM FM08 [-]</OBJECT_NAME><OBJECT_ID>1997-084A</OBJECT_ID><CENTER_NAME>EARTH</CENTER_NAME><REF_FRAME>TEME</REF_FRAME><TIME_SYSTEM>UTC</TIME_SYSTEM><MEAN_ELEMENT_THEORY>SGP4</MEAN_ELEMENT_THEORY></metadata><data><meanElements><EPOCH>2024-02-12T11:51:21.561984</EPOCH><MEAN_MOTION>14.41985854</MEAN_MOTION><ECCENTRICITY>.0007372</ECCENTRICITY><INCLINATION>45.0132</INCLINATION><RA_OF_ASC_NODE>196.1828</RA_OF_ASC_NODE><ARG_OF_PERICENTER>281.5526</ARG_OF_PERICENTER><MEAN_ANOMALY>78.4496</MEAN_ANOMALY></meanElements><tleParameters><EPHEMERIS_TYPE>0</EPHEMERIS_TYPE><CLASSIFICATION_TYPE>U</CLASSIFICATION_TYPE><NORAD_CAT_ID>25112</NORAD_CAT_ID><ELEMENT_SET_NO>999</ELEMENT_SET_NO><REV_AT_EPOCH>37045</REV_AT_EPOCH><BSTAR>.12422E-2</BSTAR><MEAN_MOTION_DOT>.3972E-4</MEAN_MOTION_DOT><MEAN_MOTION_DDOT>0</MEAN_MOTION_DDOT></tleParameters></data></segment></body></omm>
<omm id="CCSDS_OMM_VERS" version="2.0">
<header><CREATION_DATE/><ORIGINATOR/></header><body><segment><metadata><OBJECT_NAME>ORBCOMM FM10 [-]</OBJECT_NAME><OBJECT_ID>1997-084B</OBJECT_ID><CENTER_NAME>EARTH</CENTER_NAME><REF_FRAME>TEME</REF_FRAME><TIME_SYSTEM>UTC</TIME_SYSTEM><MEAN_ELEMENT_THEORY>SGP4</MEAN_ELEMENT_THEORY></metadata><data><meanElements><EPOCH>2024-02-11T19:16:39.072000</EPOCH><MEAN_MOTION>14.41907436</MEAN_MOTION><ECCENTRICITY>.0005615</ECCENTRICITY><INCLINATION>45.0143</INCLINATION><RA_OF_ASC_NODE>201.2703</RA_OF_ASC_NODE><ARG_OF_PERICENTER>247.7714</ARG_OF_PERICENTER><MEAN_ANOMALY>112.2541</MEAN_ANOMALY></meanElements><tleParameters><EPHEMERIS_TYPE>0</EPHEMERIS_TYPE><CLASSIFICATION_TYPE>U</CLASSIFICATION_TYPE><NORAD_CAT_ID>25113</NORAD_CAT_ID><ELEMENT_SET_NO>999</ELEMENT_SET_NO><REV_AT_EPOCH>54550</REV_AT_EPOCH><BSTAR>.11757E-2</BSTAR><MEAN_MOTION_DOT>.3745E-4</MEAN_MOTION_DOT><MEAN_MOTION_DDOT>0</MEAN_MOTION_DDOT></tleParameters></data></segment></body></omm>
<omm id="CCSDS_OMM_VERS" version="2.0">
<header><CREATION_DATE/><ORIGINATOR/></header><body><segment><metadata><OBJECT_NAME>ORBCOMM FM12 [-]</OBJECT_NAME><OBJECT_ID>1997-084D</OBJECT_ID><CENTER_NAME>EARTH</CENTER_NAME><REF_FRAME>TEME</REF_FRAME><TIME_SYSTEM>UTC</TIME_SYSTEM><MEAN_ELEMENT_THEORY>SGP4</MEAN_ELEMENT_THEORY></metadata><data><meanElements><EPOCH>2024-02-12T09:30:31.835520</EPOCH><MEAN_MOTION>14.41773815</MEAN_MOTION><ECCENTRICITY>.0005431</ECCENTRICITY><INCLINATION>45.0136</INCLINATION><RA_OF_ASC_NODE>198.1102</RA_OF_ASC_NODE><ARG_OF_PERICENTER>251.0351</ARG_OF_PERICENTER><MEAN_ANOMALY>108.9911</MEAN_ANOMALY></meanElements><tleParameters><EPHEMERIS_TYPE>0</EPHEMERIS_TYPE><CLASSIFICATION_TYPE>U</CLASSIFICATION_TYPE><NORAD_CAT_ID>25115</NORAD_CAT_ID><ELEMENT_SET_NO>999</ELEMENT_SET_NO><REV_AT_EPOCH>37035</REV_AT_EPOCH><BSTAR>.11312E-2</BSTAR><MEAN_MOTION_DOT>.3588E-4</MEAN_MOTION_DOT><MEAN_MOTION_DDOT>0</MEAN_MOTION_DDOT></tleParameters></data></segment></body></omm>
<omm id="CCSDS_OMM_VERS" version="2.0">
<header><CREATION_DATE/><ORIGINATOR/></header><body><segment><metadata><OBJECT_NAME>ORBCOMM FM09 [-]</OBJECT_NAME><OBJECT_ID>1997-084E</OBJECT_ID><CENTER_NAME>EARTH</CENTER_NAME><REF_FRAME>TEME</REF_FRAME><TIME_SYSTEM>UTC</TIME_SYSTEM><MEAN_ELEMENT_THEORY>SGP4</MEAN_ELEMENT_THEORY></metadata><data><meanElements><EPOCH>2024-02-12T09:43:52.504320</EPOCH><MEAN_MOTION>14.41740132</MEAN_MOTION><ECCENTRICITY>.0006711</ECCENTRICITY><INCLINATION>45.0139</INCLINATION><RA_OF_ASC_NODE>198.7278</RA_OF_ASC_NODE><ARG_OF_PERICENTER>239.8761</ARG_OF_PERICENTER><MEAN_ANOMALY>120.1424</MEAN_ANOMALY></meanElements><tleParameters><EPHEMERIS_TYPE>0</EPHEMERIS_TYPE><CLASSIFICATION_TYPE>U</CLASSIFICATION_TYPE><NORAD_CAT_ID>25116</NORAD_CAT_ID><ELEMENT_SET_NO>999</ELEMENT_SET_NO><REV_AT_EPOCH>37056</REV_AT_EPOCH><BSTAR>.11965E-2</BSTAR><MEAN_MOTION_DOT>.3801E-4</MEAN_MOTION_DOT><MEAN_MOTION_DDOT>0</MEAN_MOTION_DDOT></tleParameters></data></segment></body></omm>

</ndm>
