ORBCOMM-X [-]           
1 21576U 91050C   24043.17744059  .00000621  00000+0  20111-3 0  9992
2 21576  98.4056 112.3678 0002989 214.6437 145.4559 14.42361010711316
ORBCOMM FM01 [-]        
1 23545U 95017A   24043.58873410  .00012667  00000+0  17413-2 0  9999
2 23545  69.9678 205.8889 0006764 319.5947  40.4698 14.78446847539727
ORBCOMM FM02 [-]        
1 23546U 95017B   24043.59288905  .00009450  00000+0  13148-2 0  9997
2 23546  69.9685 225.1411 0008741 318.6182  41.4303 14.78033207539377
ORBCOMM FM08 [-]        
1 25112U 97084A   24043.49399956  .00003972  00000+0  12422-2 0  9999
2 25112  45.0132 196.1828 0007372 281.5526  78.4496 14.41985854370457
ORBCOMM FM10 [-]        
1 25113U 97084B   24042.80323000  .00003745  00000+0  11757-2 0  9999
2 25113  45.0143 201.2703 0005615 247.7714 112.2541 14.41907436545509
ORBCOMM FM12 [-]        
1 25115U 97084D   24043.39620180  .00003588  00000+0  11312-2 0  9997
2 25115  45.0136 198.1102 0005431 251.0351 108.9911 14.41773815370355
ORBCOMM FM09 [-]        
1 25116U 97084E   24043.40546880  .00003801  00000+0  11965-2 0  9996
2 25116  45.0139 198.7278 0006711 239.8761 120.1424 14.41740132370564
